ALOS (DAICHI)           
1 28931U 06002A   26050.87063374  .00001286  00000+0  22405-3 0  9994
2 28931  98.1190   6.9199 0001643  55.3285 304.8076 14.69746820 70865
H-2A R/B                
1 28932U 06002B   26050.98844426  .00007299  00000+0  37091-3 0  9999
2 28932  98.2383 196.5001 0052133 302.1776  57.4403 15.16027420 91754
RESURS-DK 1             
1 29228U 06021A   26051.73930387  .00001788  00000+0  10819-3 0  9991
2 29228  69.9318 280.8700 0003150 182.5765 177.5385 15.12634937 84963
CZ-4B R/B               
1 29507U 06046C   26051.12715354  .00004583  00000+0  23438-3 0  9993
2 29507  97.5625  96.0821 0032478 330.8969  29.0452 15.16705397 57386
CZ-2C R/B               
1 31114U 07010B   26051.32468801  .00000097  00000+0  63754-4 0  9998
2 31114  98.3973 165.4750 0058554 345.8037  14.1492 14.20239593977255
COSMO-SKYMED 1          
1 31598U 07023A   26051.27938626  .00003408  00000+0  30605-3 0  9996
2 31598  97.8868 242.1735 0001479  89.0638 271.0752 14.96391285 12301
COSMOS 2428             
1 31792U 07029A   26051.26070247  .00000192  00000+0  12853-3 0  9995
2 31792  70.9399 239.9278 0008070 296.0358  63.9931 14.12939982961633
SL-16 R/B               
1 31793U 07029B   26050.89812131 -.00000050  00000+0 -85556-6 0  9998
2 31793  70.9747 209.7812 0002404 281.8562 188.1827 14.14836719962859
KORONAS-FOTON           
1 33504U 09003A   26051.70945670  .00011465  00000+0  26013-3 0  9990
2 33504  82.4298 293.5264 0009672 210.6517 149.4166 15.42860088943129
CZ-2C R/B               
1 37731U 11030B   26051.46269181  .00001394  00000+0  18172-3 0  9995
2 37731  97.8517   9.0756 0053887  47.4683  65.3625 14.81147814787547
H-2A R/B                
1 38341U 12025E   26051.39466859  .00003260  00000+0  29844-3 0  9993
2 38341  98.4713  17.0636 0045125  11.5734 348.6511 14.95007293745637
SHIJIAN-16 (SJ-16)      
1 39358U 13057A   26051.73471319  .00000716  00000+0  72902-4 0  9990
2 39358  74.9705 217.1828 0016282 155.5453 204.6511 14.92267107668972
