CCSDS_OMM_VERS = 2.0
CREATION_DATE  = 
ORIGINATOR     = 

OBJECT_NAME    = ALOS (DAICHI)
OBJECT_ID      = 2006-002A
CENTER_NAME    = EARTH
REF_FRAME      = TEME
TIME_SYSTEM    = UTC
MEAN_ELEMENT_THEORY = SGP/SGP4

EPOCH          = 2026-02-19T20:53:42.755136
MEAN_MOTION    = 14.69746820
ECCENTRICITY   = .0001643
INCLINATION    = 98.1190
RA_OF_ASC_NODE = 6.9199
ARG_OF_PERICENTER = 55.3285
MEAN_ANOMALY   = 304.8076

EPHEMERIS_TYPE = 0
CLASSIFICATION_TYPE = U
NORAD_CAT_ID   = 28931
ELEMENT_SET_NO = 999
REV_AT_EPOCH   = 7086
BSTAR          = .22405E-3
MEAN_MOTION_DOT = .1286E-4
MEAN_MOTION_DDOT = 0

CCSDS_OMM_VERS = 2.0
CREATION_DATE  = 
ORIGINATOR     = 

OBJECT_NAME    = H-2A R/B
OBJECT_ID      = 2006-002B
CENTER_NAME    = EARTH
REF_FRAME      = TEME
TIME_SYSTEM    = UTC
MEAN_ELEMENT_THEORY = SGP/SGP4

EPOCH          = 2026-02-19T23:43:21.584064
MEAN_MOTION    = 15.16027420
ECCENTRICITY   = .00521338
INCLINATION    = 98.2383
RA_OF_ASC_NODE = 196.5001
ARG_OF_PERICENTER = 302.1776
MEAN_ANOMALY   = 57.4403

EPHEMERIS_TYPE = 0
CLASSIFICATION_TYPE = U
NORAD_CAT_ID   = 28932
ELEMENT_SET_NO = 999
REV_AT_EPOCH   = 9175
BSTAR          = .37091001E-3
MEAN_MOTION_DOT = .7299E-4
MEAN_MOTION_DDOT = 0

CCSDS_OMM_VERS = 2.0
CREATION_DATE  = 
ORIGINATOR     = 

OBJECT_NAME    = RESURS-DK 1
OBJECT_ID      = 2006-021A
CENTER_NAME    = EARTH
REF_FRAME      = TEME
TIME_SYSTEM    = UTC
MEAN_ELEMENT_THEORY = SGP/SGP4

EPOCH          = 2026-02-20T17:44:35.854368
MEAN_MOTION    = 15.12634937
ECCENTRICITY   = .000315
INCLINATION    = 69.9318
RA_OF_ASC_NODE = 280.8700
ARG_OF_PERICENTER = 182.5765
MEAN_ANOMALY   = 177.5385

EPHEMERIS_TYPE = 0
CLASSIFICATION_TYPE = U
NORAD_CAT_ID   = 29228
ELEMENT_SET_NO = 999
REV_AT_EPOCH   = 8496
BSTAR          = .10819E-3
MEAN_MOTION_DOT = .1788E-4
MEAN_MOTION_DDOT = 0

CCSDS_OMM_VERS = 2.0
CREATION_DATE  = 
ORIGINATOR     = 

OBJECT_NAME    = CZ-4B R/B
OBJECT_ID      = 2006-046C
CENTER_NAME    = EARTH
REF_FRAME      = TEME
TIME_SYSTEM    = UTC
MEAN_ELEMENT_THEORY = SGP/SGP4

EPOCH          = 2026-02-20T03:03:06.065856
MEAN_MOTION    = 15.16705397
ECCENTRICITY   = .00324781
INCLINATION    = 97.5625
RA_OF_ASC_NODE = 96.0821
ARG_OF_PERICENTER = 330.8969
MEAN_ANOMALY   = 29.0452

EPHEMERIS_TYPE = 0
CLASSIFICATION_TYPE = U
NORAD_CAT_ID   = 29507
ELEMENT_SET_NO = 999
REV_AT_EPOCH   = 5738
BSTAR          = .23437973E-3
MEAN_MOTION_DOT = .4583E-4
MEAN_MOTION_DDOT = 0

CCSDS_OMM_VERS = 2.0
CREATION_DATE  = 
ORIGINATOR     = 

OBJECT_NAME    = CZ-2C R/B
OBJECT_ID      = 2007-010B
CENTER_NAME    = EARTH
REF_FRAME      = TEME
TIME_SYSTEM    = UTC
MEAN_ELEMENT_THEORY = SGP/SGP4

EPOCH          = 2026-02-20T07:47:33.044064
MEAN_MOTION    = 14.20239593
ECCENTRICITY   = .0058554
INCLINATION    = 98.3973
RA_OF_ASC_NODE = 165.4750
ARG_OF_PERICENTER = 345.8037
MEAN_ANOMALY   = 14.1492

EPHEMERIS_TYPE = 0
CLASSIFICATION_TYPE = U
NORAD_CAT_ID   = 31114
ELEMENT_SET_NO = 999
REV_AT_EPOCH   = 97725
BSTAR          = .63754E-4
MEAN_MOTION_DOT = .97E-6
MEAN_MOTION_DDOT = 0

CCSDS_OMM_VERS = 2.0
CREATION_DATE  = 
ORIGINATOR     = 

OBJECT_NAME    = COSMO-SKYMED 1
OBJECT_ID      = 2007-023A
CENTER_NAME    = EARTH
REF_FRAME      = TEME
TIME_SYSTEM    = UTC
MEAN_ELEMENT_THEORY = SGP/SGP4

EPOCH          = 2026-02-20T06:42:18.972864
MEAN_MOTION    = 14.96391285
ECCENTRICITY   = .00014797
INCLINATION    = 97.8868
RA_OF_ASC_NODE = 242.1735
ARG_OF_PERICENTER = 89.0638
MEAN_ANOMALY   = 271.0752

EPHEMERIS_TYPE = 0
CLASSIFICATION_TYPE = U
NORAD_CAT_ID   = 31598
ELEMENT_SET_NO = 999
REV_AT_EPOCH   = 1230
BSTAR          = .30605291E-3
MEAN_MOTION_DOT = .3408E-4
MEAN_MOTION_DDOT = 0

CCSDS_OMM_VERS = 2.0
CREATION_DATE  = 
ORIGINATOR     = 

OBJECT_NAME    = COSMOS 2428
OBJECT_ID      = 2007-029A
CENTER_NAME    = EARTH
REF_FRAME      = TEME
TIME_SYSTEM    = UTC
MEAN_ELEMENT_THEORY = SGP/SGP4

EPOCH          = 2026-02-20T06:15:24.693408
MEAN_MOTION    = 14.12939982
ECCENTRICITY   = .00080704
INCLINATION    = 70.9399
RA_OF_ASC_NODE = 239.9278
ARG_OF_PERICENTER = 296.0358
MEAN_ANOMALY   = 63.9931

EPHEMERIS_TYPE = 0
CLASSIFICATION_TYPE = U
NORAD_CAT_ID   = 31792
ELEMENT_SET_NO = 999
REV_AT_EPOCH   = 96163
BSTAR          = .12852872E-3
MEAN_MOTION_DOT = .192E-5
MEAN_MOTION_DDOT = 0

CCSDS_OMM_VERS = 2.0
CREATION_DATE  = 
ORIGINATOR     = 

OBJECT_NAME    = SL-16 R/B
OBJECT_ID      = 2007-029B
CENTER_NAME    = EARTH
REF_FRAME      = TEME
TIME_SYSTEM    = UTC
MEAN_ELEMENT_THEORY = SGP/SGP4

EPOCH          = 2026-02-19T21:33:17.681184
MEAN_MOTION    = 14.14836719
ECCENTRICITY   = .0002404
INCLINATION    = 70.9747
RA_OF_ASC_NODE = 209.7812
ARG_OF_PERICENTER = 281.8562
MEAN_ANOMALY   = 188.1827

EPHEMERIS_TYPE = 0
CLASSIFICATION_TYPE = U
NORAD_CAT_ID   = 31793
ELEMENT_SET_NO = 999
REV_AT_EPOCH   = 96285
BSTAR          = -.85556E-6
MEAN_MOTION_DOT = -.5E-6
MEAN_MOTION_DDOT = 0

CCSDS_OMM_VERS = 2.0
CREATION_DATE  = 
ORIGINATOR     = 

OBJECT_NAME    = KORONAS-FOTON
OBJECT_ID      = 2009-003A
CENTER_NAME    = EARTH
REF_FRAME      = TEME
TIME_SYSTEM    = UTC
MEAN_ELEMENT_THEORY = SGP/SGP4

EPOCH          = 2026-02-20T17:01:37.058880
MEAN_MOTION    = 15.42860088
ECCENTRICITY   = .0009672
INCLINATION    = 82.4298
RA_OF_ASC_NODE = 293.5264
ARG_OF_PERICENTER = 210.6517
MEAN_ANOMALY   = 149.4166

EPHEMERIS_TYPE = 0
CLASSIFICATION_TYPE = U
NORAD_CAT_ID   = 33504
ELEMENT_SET_NO = 999
REV_AT_EPOCH   = 94312
BSTAR          = .26013E-3
MEAN_MOTION_DOT = .11465E-3
MEAN_MOTION_DDOT = 0

CCSDS_OMM_VERS = 2.0
CREATION_DATE  = 
ORIGINATOR     = 

OBJECT_NAME    = CZ-2C R/B
OBJECT_ID      = 2011-030B
CENTER_NAME    = EARTH
REF_FRAME      = TEME
TIME_SYSTEM    = UTC
MEAN_ELEMENT_THEORY = SGP/SGP4

EPOCH          = 2026-02-20T11:06:16.572384
MEAN_MOTION    = 14.81147814
ECCENTRICITY   = .0053887
INCLINATION    = 97.8517
RA_OF_ASC_NODE = 9.0756
ARG_OF_PERICENTER = 47.4683
MEAN_ANOMALY   = 65.3625

EPHEMERIS_TYPE = 0
CLASSIFICATION_TYPE = U
NORAD_CAT_ID   = 37731
ELEMENT_SET_NO = 999
REV_AT_EPOCH   = 78754
BSTAR          = .18172E-3
MEAN_MOTION_DOT = .1394E-4
MEAN_MOTION_DDOT = 0

CCSDS_OMM_VERS = 2.0
CREATION_DATE  = 
ORIGINATOR     = 

OBJECT_NAME    = H-2A R/B
OBJECT_ID      = 2012-025E
CENTER_NAME    = EARTH
REF_FRAME      = TEME
TIME_SYSTEM    = UTC
MEAN_ELEMENT_THEORY = SGP/SGP4

EPOCH          = 2026-02-20T09:28:19.366176
MEAN_MOTION    = 14.95007293
ECCENTRICITY   = .0045125
INCLINATION    = 98.4713
RA_OF_ASC_NODE = 17.0636
ARG_OF_PERICENTER = 11.5734
MEAN_ANOMALY   = 348.6511

EPHEMERIS_TYPE = 0
CLASSIFICATION_TYPE = U
NORAD_CAT_ID   = 38341
ELEMENT_SET_NO = 999
REV_AT_EPOCH   = 74563
BSTAR          = .29844E-3
MEAN_MOTION_DOT = .326E-4
MEAN_MOTION_DDOT = 0

CCSDS_OMM_VERS = 2.0
CREATION_DATE  = 
ORIGINATOR     = 

OBJECT_NAME    = SHIJIAN-16 (SJ-16)
OBJECT_ID      = 2013-057A
CENTER_NAME    = EARTH
REF_FRAME      = TEME
TIME_SYSTEM    = UTC
MEAN_ELEMENT_THEORY = SGP/SGP4

EPOCH          = 2026-02-20T17:37:59.219616
MEAN_MOTION    = 14.92267107
ECCENTRICITY   = .0016282
INCLINATION    = 74.9705
RA_OF_ASC_NODE = 217.1828
ARG_OF_PERICENTER = 155.5453
MEAN_ANOMALY   = 204.6511

EPHEMERIS_TYPE = 0
CLASSIFICATION_TYPE = U
NORAD_CAT_ID   = 39358
ELEMENT_SET_NO = 999
REV_AT_EPOCH   = 66897
BSTAR          = .72902E-4
MEAN_MOTION_DOT = .716E-5
MEAN_MOTION_DDOT = 0

